Lindemannia,e,1.14261,1.69843,290.50981,3.1875069,0.17319182,0.0446661,69.61161,11/5/1990,1950.0,10.26,0.15
Lindgren,e,2.06387,108.36971,299.02036,3.1794294,0.17385224,0.2650950,16.97513,11/5/1990,1950.0,12.29,0.15
Linzia,e,13.39852,188.58079,218.10522,3.1241519,0.17848670,0.0685129,90.83816,11/5/1990,1950.0,9.77,0.15
Lioba,e,5.46770,86.21926,302.11902,2.5330881,0.24447172,0.1121454,128.41733,11/5/1990,1950.0,10.40,0.25
Lipperta,e,0.26566,261.45510,131.11301,3.1182713,0.17899183,0.1885440,145.32436,11/5/1990,1950.0,10.47,0.15
Lipschutz,e,9.00809,27.30417,164.46744,2.3789777,0.26860774,0.1316707,127.31456,11/5/1990,1950.0,13.16,0.25
Liriope,e,9.58492,110.80097,329.60534,3.4983586,0.15062865,0.0832889,197.56423,11/5/1990,1950.0,9.55,0.15
Liszt,e,8.68168,2.50658,271.48602,2.7979438,0.21059381,0.1313698,227.43079,11/5/1990,1950.0,12.20,0.25
Litva,e,22.90970,182.05639,283.80437,1.9043779,0.37503723,0.1380371,41.40542,11/5/1990,1950.0,12.70,0.25
Livadia,e,3.04204,8.11476,5.49690,2.4332771,0.25966698,0.1864330,337.00208,11/5/1990,1950.0,13.61,0.25
Ljuba,e,5.59884,341.34163,94.05609,3.0050469,0.18920264,0.0706506,136.27768,11/5/1990,1950.0,10.10,0.15
Lobachevskij,e,1.65609,271.80517,14.57511,2.6980720,0.22239436,0.0777905,82.43904,11/5/1990,1950.0,11.70,0.25
Lobelia,e,4.81202,344.77779,16.84134,2.4036838,0.26447709,0.2073015,72.93540,11/5/1990,1950.0,12.34,0.25
Locarno,e,12.47043,78.65314,225.78293,2.3771940,0.26891012,0.1579025,341.60863,11/5/1990,1950.0,12.20,0.25
Lodewijk,e,1.29330,215.90611,201.83097,2.9132997,0.19821035,0.0585545,333.26690,11/5/1990,1950.0,12.50,0.25
SHAR_EOF
true || echo 'restore of ephem.db failed'
fi
echo 'End of  part 16'
echo 'File ephem.db is continued in part 17'
echo 17 > _shar_seq_.tmp
exit 0
-- 
--
Molecular Simulations, Inc.			mail: dcmartin@msi.com
796 N. Pastoria Avenue				uucp: uunet!dcmartin
Sunnyvale, California 94086			at&t: 408/522-9236
